[{"OBJECT_NAME":"GUANGCHUAN 01","OBJECT_ID":"2024-221A","EPOCH":"2026-03-09T23:52:27.422976","MEAN_MOTION":15.16881016,"ECCENTRICITY":0.00068686,"INCLINATION":49.9429,"RA_OF_ASC_NODE":284.8759,"ARG_OF_PERICENTER":260.2955,"MEAN_ANOMALY":99.7221,"EPHEMERIS_TYPE":0,"CLASSIFICATION_TYPE":"U","NORAD_CAT_ID":62111,"ELEMENT_SET_NO":999,"REV_AT_EPOCH":7115,"BSTAR":0.00030732874,"MEAN_MOTION_DOT":5.834e-5,"MEAN_MOTION_DDOT":0},{"OBJECT_NAME":"ELECTRON KICK STAGE R\/B","OBJECT_ID":"2024-114G","EPOCH":"2026-03-09T16:42:35.427168","MEAN_MOTION":15.12630878,"ECCENTRICITY":0.00674954,"INCLINATION":97.9507,"RA_OF_ASC_NODE":118.387,"ARG_OF_PERICENTER":79.3604,"MEAN_ANOMALY":281.5218,"EPHEMERIS_TYPE":0,"CLASSIFICATION_TYPE":"U","NORAD_CAT_ID":60085,"ELEMENT_SET_NO":999,"REV_AT_EPOCH":9434,"BSTAR":0.00053349816,"MEAN_MOTION_DOT":9.787e-5,"MEAN_MOTION_DDOT":0}]
